{"type":"FeatureCollection","features":[{"type":"Feature","properties":{"nombre":"LA PAZ","aproximado":true},"geometry":{"type":"Polygon","coordinates":[[[-56.20514618728685,-34.7628019],[-56.20561474230436,-34.75938557739243],[-56.20699691205183,-34.75614056346572],[-56.20922338876665,-34.75322957676816],[-56.21218252760941,-34.75079858632799],[-56.21572594500222,-34.7489694921568],[-56.219675959201005,-34.74783401267398],[-56.2238345,-34.74744908556213],[-56.227993040799,-34.74783401267398],[-56.231943054997785,-34.7489694921568],[-56.2354864723906,-34.75079858632799],[-56.23844561123335,-34.75322957676816],[-56.24067208794818,-34.75614056346572],[-56.24205425769564,-34.75938557739243],[-56.242522812713155,-34.7628019],[-56.24205425769564,-34.76621822260757],[-56.24067208794818,-34.76946323653428],[-56.23844561123335,-34.772374223231836],[-56.2354864723906,-34.77480521367201],[-56.231943054997785,-34.776634307843196],[-56.227993040799,-34.77776978732602],[-56.2238345,-34.77815471443787],[-56.219675959201005,-34.77776978732602],[-56.21572594500222,-34.776634307843196],[-56.21218252760941,-34.77480521367201],[-56.20922338876665,-34.772374223231836],[-56.20699691205183,-34.76946323653428],[-56.20561474230436,-34.76621822260757],[-56.20514618728685,-34.7628019]]]}},{"type":"Feature","properties":{"nombre":"LAS PIEDRAS","aproximado":true},"geometry":{"type":"Polygon","coordinates":[[[-56.18252841052342,-34.7269944],[-56.183366795804126,-34.72087892522342],[-56.185839911507486,-34.71507010588813],[-56.18982374528529,-34.70985922045113],[-56.195118531076886,-34.705507564466984],[-56.201458766213584,-34.702233348137675],[-56.208526524831115,-34.70020075434189],[-56.2159674,-34.69951170581993],[-56.22340827516888,-34.70020075434189],[-56.23047603378641,-34.702233348137675],[-56.23681626892311,-34.705507564466984],[-56.242111054714705,-34.70985922045113],[-56.24609488849251,-34.71507010588813],[-56.24856800419587,-34.72087892522342],[-56.249406389476576,-34.7269944],[-56.24856800419587,-34.73310987477659],[-56.24609488849251,-34.738918694111874],[-56.242111054714705,-34.744129579548876],[-56.23681626892311,-34.74848123553302],[-56.23047603378641,-34.75175545186233],[-56.22340827516888,-34.75378804565811],[-56.2159674,-34.754477094180075],[-56.208526524831115,-34.75378804565811],[-56.201458766213584,-34.75175545186233],[-56.195118531076886,-34.74848123553302],[-56.18982374528529,-34.744129579548876],[-56.185839911507486,-34.738918694111874],[-56.183366795804126,-34.73310987477659],[-56.18252841052342,-34.7269944]]]}},{"type":"Feature","properties":{"nombre":"PROGRESO","aproximado":true},"geometry":{"type":"Polygon","coordinates":[[[-56.204259758353636,-34.6673165],[-56.20462323948373,-34.664663229103994],[-56.20569545641239,-34.66214300428982],[-56.20742264370563,-34.65988220015318],[-56.20971819298045,-34.65799418285379],[-56.212466995810836,-34.65657362546273],[-56.215531215744875,-34.655691760659295],[-56.2187572,-34.65539280882709],[-56.22198318425512,-34.655691760659295],[-56.22504740418916,-34.65657362546273],[-56.227796207019544,-34.65799418285379],[-56.23009175629437,-34.65988220015318],[-56.231818943587605,-34.66214300428982],[-56.23289116051627,-34.664663229103994],[-56.23325464164636,-34.6673165],[-56.23289116051627,-34.669969770896],[-56.231818943587605,-34.67248999571018],[-56.23009175629437,-34.67475079984682],[-56.227796207019544,-34.676638817146205],[-56.22504740418916,-34.67805937453727],[-56.22198318425512,-34.6789412393407],[-56.2187572,-34.67924019117291],[-56.215531215744875,-34.6789412393407],[-56.212466995810836,-34.67805937453727],[-56.20971819298045,-34.676638817146205],[-56.20742264370563,-34.67475079984682],[-56.20569545641239,-34.67248999571018],[-56.20462323948373,-34.669969770896],[-56.204259758353636,-34.6673165]]]}},{"type":"Feature","properties":{"nombre":"18 DE MAYO","aproximado":true},"geometry":{"type":"Polygon","coordinates":[[[-56.19533171954676,-34.7004145],[-56.19584049941315,-34.69670208919085],[-56.19734132666534,-34.693175834161345],[-56.199758943557995,-34.69001255606303],[-56.202972120685025,-34.68737087486845],[-56.206819735928235,-34.685383255503396],[-56.21110885379307,-34.68414936550242],[-56.2156244,-34.683731077262436],[-56.220139946206935,-34.68414936550242],[-56.22442906407177,-34.685383255503396],[-56.22827667931498,-34.68737087486845],[-56.23148985644201,-34.69001255606303],[-56.23390747333467,-34.693175834161345],[-56.235408300586855,-34.69670208919085],[-56.23591708045325,-34.7004145],[-56.235408300586855,-34.70412691080915],[-56.23390747333467,-34.70765316583866],[-56.23148985644201,-34.71081644393697],[-56.22827667931498,-34.71345812513155],[-56.22442906407177,-34.715445744496606],[-56.220139946206935,-34.71667963449758],[-56.2156244,-34.717097922737565],[-56.21110885379307,-34.71667963449758],[-56.206819735928235,-34.715445744496606],[-56.202972120685025,-34.71345812513155],[-56.199758943557995,-34.71081644393697],[-56.19734132666534,-34.70765316583866],[-56.19584049941315,-34.70412691080915],[-56.19533171954676,-34.7004145]]]}},{"type":"Feature","properties":{"nombre":"BARROS BLANCOS","aproximado":true},"geometry":{"type":"Polygon","coordinates":[[[-55.995215008621415,-34.765948],[-55.995854725233144,-34.761283883837514],[-55.997741797006206,-34.756853645935074],[-56.000781598282174,-34.75287943692015],[-56.00482170073196,-34.749560540227634],[-56.009659516748734,-34.74706337919617],[-56.01505245803646,-34.74551317190712],[-56.0207301,-34.74498765222705],[-56.026407741963546,-34.74551317190712],[-56.03180068325127,-34.74706337919617],[-56.036638499268044,-34.749560540227634],[-56.04067860171783,-34.75287943692015],[-56.0437184029938,-34.756853645935074],[-56.04560547476686,-34.761283883837514],[-56.04624519137859,-34.765948],[-56.04560547476686,-34.77061211616249],[-56.0437184029938,-34.77504235406493],[-56.04067860171783,-34.77901656307985],[-56.036638499268044,-34.78233545977237],[-56.03180068325127,-34.78483262080383],[-56.026407741963546,-34.78638282809288],[-56.0207301,-34.78690834777295],[-56.01505245803646,-34.78638282809288],[-56.009659516748734,-34.78483262080383],[-56.00482170073196,-34.78233545977237],[-56.000781598282174,-34.77901656307985],[-55.997741797006206,-34.77504235406493],[-55.995854725233144,-34.77061211616249],[-55.995215008621415,-34.765948]]]}},{"type":"Feature","properties":{"nombre":"PANDO","aproximado":true},"geometry":{"type":"Polygon","coordinates":[[[-55.9362554794517,-34.7214042],[-55.93685344675414,-34.71704212289327],[-55.93861736408404,-34.71289877854711],[-55.94145878126098,-34.709181931548144],[-55.94523521776299,-34.70607796012511],[-55.949757307294846,-34.703742510366204],[-55.954798293404814,-34.702292691474334],[-55.9601054,-34.70180120342265],[-55.96541250659519,-34.702292691474334],[-55.97045349270516,-34.703742510366204],[-55.974975582237015,-34.70607796012511],[-55.97875201873903,-34.709181931548144],[-55.98159343591597,-34.71289877854711],[-55.983357353245864,-34.71704212289327],[-55.983955320548304,-34.7214042],[-55.983357353245864,-34.725766277106736],[-55.98159343591597,-34.7299096214529],[-55.97875201873903,-34.73362646845186],[-55.974975582237015,-34.7367304398749],[-55.97045349270516,-34.7390658896338],[-55.96541250659519,-34.74051570852567],[-55.9601054,-34.74100719657736],[-55.954798293404814,-34.74051570852567],[-55.949757307294846,-34.7390658896338],[-55.94523521776299,-34.7367304398749],[-55.94145878126098,-34.73362646845186],[-55.93861736408404,-34.7299096214529],[-55.93685344675414,-34.725766277106736],[-55.9362554794517,-34.7214042]]]}},{"type":"Feature","properties":{"nombre":"TOLEDO","aproximado":true},"geometry":{"type":"Polygon","coordinates":[[[-56.07724317378149,-34.7461761],[-56.07751664823672,-34.74418174490649],[-56.07832335845129,-34.74228739510507],[-56.07962285260652,-34.7405880412049],[-56.08134996863925,-34.73916889590642],[-56.08341810173979,-34.738101121080724],[-56.0857235470787,-34.737438259416216],[-56.0881507,-34.73721354956463],[-56.0905778529213,-34.737438259416216],[-56.09288329826021,-34.738101121080724],[-56.09495143136075,-34.73916889590642],[-56.09667854739348,-34.7405880412049],[-56.09797804154871,-34.74228739510507],[-56.09878475176328,-34.74418174490649],[-56.09905822621851,-34.7461761],[-56.09878475176328,-34.74817045509351],[-56.09797804154871,-34.750064804894926],[-56.09667854739348,-34.7517641587951],[-56.09495143136075,-34.75318330409358],[-56.09288329826021,-34.754251078919275],[-56.0905778529213,-34.75491394058378],[-56.0881507,-34.75513865043537],[-56.0857235470787,-34.75491394058378],[-56.08341810173979,-34.754251078919275],[-56.08134996863925,-34.75318330409358],[-56.07962285260652,-34.7517641587951],[-56.07832335845129,-34.750064804894926],[-56.07751664823672,-34.74817045509351],[-56.07724317378149,-34.7461761]]]}},{"type":"Feature","properties":{"nombre":"SUÁREZ","aproximado":true},"geometry":{"type":"Polygon","coordinates":[[[-56.021975313044635,-34.7325214],[-56.022284800062394,-34.73026404465531],[-56.023197742144305,-34.72811988253349],[-56.024668360562266,-34.726196430876584],[-56.02662291236803,-34.7245901395823],[-56.028963388172556,-34.72338155480341],[-56.03157242674604,-34.72263128002735],[-56.0343192,-34.72237693716426],[-56.03706597325396,-34.72263128002735],[-56.03967501182744,-34.72338155480341],[-56.042015487631964,-34.7245901395823],[-56.04397003943773,-34.726196430876584],[-56.04544065785569,-34.72811988253349],[-56.0463535999376,-34.73026404465531],[-56.04666308695536,-34.7325214],[-56.0463535999376,-34.7347787553447],[-56.04544065785569,-34.736922917466515],[-56.04397003943773,-34.73884636912342],[-56.042015487631964,-34.74045266041771],[-56.03967501182744,-34.741661245196596],[-56.03706597325396,-34.742411519972656],[-56.0343192,-34.74266586283574],[-56.03157242674604,-34.742411519972656],[-56.028963388172556,-34.741661245196596],[-56.02662291236803,-34.74045266041771],[-56.024668360562266,-34.73884636912342],[-56.023197742144305,-34.736922917466515],[-56.022284800062394,-34.7347787553447],[-56.021975313044635,-34.7325214]]]}},{"type":"Feature","properties":{"nombre":"EMPALME NICOLICH","aproximado":true},"geometry":{"type":"Polygon","coordinates":[[[-56.018493744434075,-34.8114383],[-56.0188585221401,-34.80878020517994],[-56.01993456378083,-34.8062553983334],[-56.021667912135236,-34.80399048381833],[-56.02397164987899,-34.80209903390598],[-56.02673025798205,-34.80067589379297],[-56.02980540831519,-34.79979242566707],[-56.0330429,-34.799492930309164],[-56.036280391684805,-34.79979242566707],[-56.039355542017944,-34.80067589379297],[-56.04211415012101,-34.80209903390598],[-56.04441788786476,-34.80399048381833],[-56.04615123621917,-34.8062553983334],[-56.047227277859896,-34.80878020517994],[-56.04759205556592,-34.8114383],[-56.047227277859896,-34.814096394820055],[-56.04615123621917,-34.8166212016666],[-56.04441788786476,-34.818886116181666],[-56.04211415012101,-34.820777566094016],[-56.039355542017944,-34.82220070620703],[-56.036280391684805,-34.82308417433293],[-56.0330429,-34.823383669690834],[-56.02980540831519,-34.82308417433293],[-56.02673025798205,-34.82220070620703],[-56.02397164987899,-34.820777566094016],[-56.021667912135236,-34.818886116181666],[-56.01993456378083,-34.8166212016666],[-56.0188585221401,-34.814096394820055],[-56.018493744434075,-34.8114383]]]}},{"type":"Feature","properties":{"nombre":"PASO DE CARRASCO","aproximado":true},"geometry":{"type":"Polygon","coordinates":[[[-56.03071198972201,-34.8592082],[-56.0311617406126,-34.855932815999765],[-56.032488440896756,-34.85282167343012],[-56.034625564282386,-34.8500307779705],[-56.037465946479095,-34.84770007677302],[-56.04086715886313,-34.845946440927875],[-56.04465865044334,-34.844857805058886],[-56.0486503,-34.844488757914284],[-56.05264194955666,-34.844857805058886],[-56.05643344113687,-34.845946440927875],[-56.0598346535209,-34.84770007677302],[-56.06267503571761,-34.8500307779705],[-56.06481215910324,-34.85282167343012],[-56.066138859387394,-34.855932815999765],[-56.06658861027799,-34.8592082],[-56.066138859387394,-34.86248358400023],[-56.06481215910324,-34.865594726569874],[-56.06267503571761,-34.86838562202949],[-56.0598346535209,-34.87071632322697],[-56.05643344113687,-34.87246995907212],[-56.05264194955666,-34.87355859494111],[-56.0486503,-34.87392764208571],[-56.04465865044334,-34.87355859494111],[-56.04086715886313,-34.87246995907212],[-56.037465946479095,-34.87071632322697],[-56.034625564282386,-34.86838562202949],[-56.032488440896756,-34.865594726569874],[-56.0311617406126,-34.86248358400023],[-56.03071198972201,-34.8592082]]]}},{"type":"Feature","properties":{"nombre":"AEROPUERTO INTERNACIONAL DE CARRASCO","aproximado":true},"geometry":{"type":"Polygon","coordinates":[[[-56.01070749502268,-34.8370966],[-56.01084469713364,-34.83609713479179],[-56.01124942357977,-34.83514778694252],[-56.01190137968707,-34.834296160717486],[-56.01276787365398,-34.833584960211695],[-56.01380545585485,-34.83304984798822],[-56.01496209758555,-34.832717656808384],[-56.0161798,-34.832605044125046],[-56.017397502414454,-34.832717656808384],[-56.018554144145156,-34.83304984798822],[-56.01959172634603,-34.833584960211695],[-56.02045822031294,-34.834296160717486],[-56.02111017642024,-34.83514778694252],[-56.021514902866365,-34.83609713479179],[-56.02165210497733,-34.8370966],[-56.021514902866365,-34.83809606520821],[-56.02111017642024,-34.839045413057484],[-56.02045822031294,-34.83989703928252],[-56.01959172634603,-34.84060823978831],[-56.018554144145156,-34.841143352011784],[-56.017397502414454,-34.84147554319162],[-56.0161798,-34.84158815587496],[-56.01496209758555,-34.84147554319162],[-56.01380545585485,-34.841143352011784],[-56.01276787365398,-34.84060823978831],[-56.01190137968707,-34.83989703928252],[-56.01124942357977,-34.839045413057484],[-56.01084469713364,-34.83809606520821],[-56.01070749502268,-34.8370966]]]}},{"type":"Feature","properties":{"nombre":"BARRA DE CARRASCO","aproximado":true},"geometry":{"type":"Polygon","coordinates":[[[-56.016473579730466,-34.8720324],[-56.01674829009047,-34.87003208908722],[-56.01755864604594,-34.868132082116176],[-56.01886401296553,-34.86642765337013],[-56.02059893430114,-34.8650042700235],[-56.022676413852615,-34.863933306460794],[-56.02499227812043,-34.863268465267026],[-56.0274304,-34.863043084355766],[-56.02986852187957,-34.863268465267026],[-56.032184386147385,-34.863933306460794],[-56.03426186569886,-34.8650042700235],[-56.03599678703447,-34.86642765337013],[-56.03730215395406,-34.868132082116176],[-56.03811250990953,-34.87003208908722],[-56.038387220269534,-34.8720324],[-56.03811250990953,-34.874032710912786],[-56.03730215395406,-34.87593271788383],[-56.03599678703447,-34.87763714662987],[-56.03426186569886,-34.879060529976506],[-56.032184386147385,-34.88013149353921],[-56.02986852187957,-34.88079633473298],[-56.0274304,-34.88102171564424],[-56.02499227812043,-34.88079633473298],[-56.022676413852615,-34.88013149353921],[-56.02059893430114,-34.879060529976506],[-56.01886401296553,-34.87763714662987],[-56.01755864604594,-34.87593271788383],[-56.01674829009047,-34.874032710912786],[-56.016473579730466,-34.8720324]]]}},{"type":"Feature","properties":{"nombre":"COLINAS DE CARRASCO","aproximado":true},"geometry":{"type":"Polygon","coordinates":[[[-56.010753068504194,-34.7896783],[-56.01093867043835,-34.78832548217749],[-56.01148616938484,-34.78704050028948],[-56.012368111460326,-34.785887788693444],[-56.013540272406466,-34.78492514916212],[-56.014943875178915,-34.78420085246123],[-56.01650853727373,-34.78375121785177],[-56.0181558,-34.78359879189056],[-56.019803062726275,-34.78375121785177],[-56.02136772482109,-34.78420085246123],[-56.02277132759354,-34.78492514916212],[-56.02394348853968,-34.785887788693444],[-56.02482543061517,-34.78704050028948],[-56.025372929561655,-34.78832548217749],[-56.02555853149581,-34.7896783],[-56.025372929561655,-34.791031117822506],[-56.02482543061517,-34.79231609971052],[-56.02394348853968,-34.79346881130655],[-56.02277132759354,-34.79443145083788],[-56.02136772482109,-34.795155747538765],[-56.019803062726275,-34.795605382148224],[-56.0181558,-34.795757808109435],[-56.01650853727373,-34.795605382148224],[-56.014943875178915,-34.795155747538765],[-56.013540272406466,-34.79443145083788],[-56.012368111460326,-34.79346881130655],[-56.01148616938484,-34.79231609971052],[-56.01093867043835,-34.791031117822506],[-56.010753068504194,-34.7896783]]]}},{"type":"Feature","properties":{"nombre":"COLINAS DE SOLYMAR","aproximado":true},"geometry":{"type":"Polygon","coordinates":[[[-55.94810898890922,-34.8016001],[-55.94830511810145,-34.800170757646804],[-55.9488836709415,-34.79881308848761],[-55.949815636374126,-34.797595171723195],[-55.95105428176099,-34.7965780787857],[-55.95253749625027,-34.795812810962026],[-55.9541909052741,-34.79533774197633],[-55.9559316,-34.795176693771275],[-55.957672294725896,-34.79533774197633],[-55.95932570374973,-34.795812810962026],[-55.96080891823901,-34.7965780787857],[-55.96204756362587,-34.797595171723195],[-55.9629795290585,-34.79881308848761],[-55.96355808189855,-34.800170757646804],[-55.96375421109078,-34.8016001],[-55.96355808189855,-34.8030294423532],[-55.9629795290585,-34.80438711151239],[-55.96204756362587,-34.80560502827681],[-55.96080891823901,-34.8066221212143],[-55.95932570374973,-34.80738738903798],[-55.957672294725896,-34.80786245802367],[-55.9559316,-34.80802350622873],[-55.9541909052741,-34.80786245802367],[-55.95253749625027,-34.80738738903798],[-55.95105428176099,-34.8066221212143],[-55.949815636374126,-34.80560502827681],[-55.9488836709415,-34.80438711151239],[-55.94830511810145,-34.8030294423532],[-55.94810898890922,-34.8016001]]]}},{"type":"Feature","properties":{"nombre":"EL BOSQUE","aproximado":true},"geometry":{"type":"Polygon","coordinates":[[[-55.96348237003754,-34.8397312],[-55.96366808475765,-34.838378382177495],[-55.96421591640643,-34.83709340028948],[-55.96509839441747,-34.83594068869345],[-55.966271267658385,-34.834978049162125],[-55.967675723367385,-34.83425375246124],[-55.96924133627073,-34.83380411785178],[-55.9708896,-34.833651691890566],[-55.97253786372927,-34.83380411785178],[-55.974103476632614,-34.83425375246124],[-55.975507932341614,-34.834978049162125],[-55.97668080558253,-34.83594068869345],[-55.97756328359357,-34.83709340028948],[-55.97811111524235,-34.838378382177495],[-55.97829682996246,-34.8397312],[-55.97811111524235,-34.84108401782251],[-55.97756328359357,-34.84236899971052],[-55.97668080558253,-34.84352171130656],[-55.975507932341614,-34.84448435083788],[-55.974103476632614,-34.84520864753877],[-55.97253786372927,-34.84565828214823],[-55.9708896,-34.84581070810944],[-55.96924133627073,-34.84565828214823],[-55.967675723367385,-34.84520864753877],[-55.966271267658385,-34.84448435083788],[-55.96509839441747,-34.84352171130656],[-55.96421591640643,-34.84236899971052],[-55.96366808475765,-34.84108401782251],[-55.96348237003754,-34.8397312]]]}},{"type":"Feature","properties":{"nombre":"EL DORADO","aproximado":true},"geometry":{"type":"Polygon","coordinates":[[[-56.01915558697892,-34.8484314],[-56.019341321331936,-34.847078582177495],[-56.01988921089499,-34.84579360028948],[-56.020771782197585,-34.84464088869345],[-56.02194477942932,-34.843678249162124],[-56.023349383610984,-34.84295395246124],[-56.02491516202379,-34.84250431785178],[-56.0265636,-34.842351891890566],[-56.02821203797622,-34.84250431785178],[-56.02977781638902,-34.84295395246124],[-56.03118242057069,-34.843678249162124],[-56.03235541780242,-34.84464088869345],[-56.03323798910502,-34.84579360028948],[-56.03378587866807,-34.847078582177495],[-56.03397161302109,-34.8484314],[-56.03378587866807,-34.84978421782251],[-56.03323798910502,-34.85106919971052],[-56.03235541780242,-34.85222191130656],[-56.03118242057069,-34.85318455083788],[-56.02977781638902,-34.85390884753877],[-56.02821203797622,-34.85435848214823],[-56.0265636,-34.85451090810944],[-56.02491516202379,-34.85435848214823],[-56.023349383610984,-34.85390884753877],[-56.02194477942932,-34.85318455083788],[-56.020771782197585,-34.85222191130656],[-56.01988921089499,-34.85106919971052],[-56.019341321331936,-34.84978421782251],[-56.01915558697892,-34.8484314]]]}},{"type":"Feature","properties":{"nombre":"EL PINAR","aproximado":true},"geometry":{"type":"Polygon","coordinates":[[[-55.88733780908698,-34.7963139],[-55.88789661555244,-34.79224119182256],[-55.88954501405928,-34.788372706239294],[-55.89220034702324,-34.784902425270715],[-55.89572946496181,-34.78200436329524],[-55.899955403165244,-34.77982384124156],[-55.904666255446024,-34.778470199590515],[-55.9096258,-34.77801131558681],[-55.91458534455398,-34.778470199590515],[-55.91929619683476,-34.77982384124156],[-55.92352213503819,-34.78200436329524],[-55.92705125297676,-34.784902425270715],[-55.92970658594072,-34.788372706239294],[-55.93135498444756,-34.79224119182256],[-55.93191379091302,-34.7963139],[-55.93135498444756,-34.80038660817744],[-55.92970658594072,-34.80425509376071],[-55.92705125297676,-34.80772537472929],[-55.92352213503819,-34.81062343670476],[-55.91929619683476,-34.812803958758444],[-55.91458534455398,-34.81415760040949],[-55.9096258,-34.81461648441319],[-55.904666255446024,-34.81415760040949],[-55.899955403165244,-34.812803958758444],[-55.89572946496181,-34.81062343670476],[-55.89220034702324,-34.80772537472929],[-55.88954501405928,-34.80425509376071],[-55.88789661555244,-34.80038660817744],[-55.88733780908698,-34.7963139]]]}},{"type":"Feature","properties":{"nombre":"LA TAHONA","aproximado":true},"geometry":{"type":"Polygon","coordinates":[[[-55.97549372549015,-34.7957268],[-55.975679341038806,-34.79437398217749],[-55.97622688014609,-34.79308900028948],[-55.97710888691485,-34.79193628869344],[-55.97828113384275,-34.79097364916212],[-55.979684839573956,-34.79024935246123],[-55.98124961644174,-34.78979971785177],[-55.982897,-34.78964729189056],[-55.984544383558266,-34.78979971785177],[-55.98610916042605,-34.79024935246123],[-55.98751286615725,-34.79097364916212],[-55.988685113085154,-34.79193628869344],[-55.98956711985391,-34.79308900028948],[-55.9901146589612,-34.79437398217749],[-55.99030027450985,-34.7957268],[-55.9901146589612,-34.797079617822504],[-55.98956711985391,-34.79836459971052],[-55.988685113085154,-34.79951731130655],[-55.98751286615725,-34.800479950837875],[-55.98610916042605,-34.80120424753876],[-55.984544383558266,-34.80165388214822],[-55.982897,-34.801806308109434],[-55.98124961644174,-34.80165388214822],[-55.979684839573956,-34.80120424753876],[-55.97828113384275,-34.800479950837875],[-55.97710888691485,-34.79951731130655],[-55.97622688014609,-34.79836459971052],[-55.975679341038806,-34.797079617822504],[-55.97549372549015,-34.7957268]]]}},{"type":"Feature","properties":{"nombre":"LAGOMAR","aproximado":true},"geometry":{"type":"Polygon","coordinates":[[[-55.96995255064995,-34.8351997],[-55.9702712381811,-34.832878129023406],[-55.971211320451005,-34.830672971309625],[-55.97272565780922,-34.82869480267435],[-55.97473831505728,-34.827042816753064],[-55.97714836915664,-34.82579985101796],[-55.97983496993125,-34.82502823296117],[-55.9826634,-34.82476665473405],[-55.98549183006875,-34.82502823296117],[-55.98817843084336,-34.82579985101796],[-55.99058848494272,-34.827042816753064],[-55.99260114219078,-34.82869480267435],[-55.994115479548995,-34.830672971309625],[-55.9950555618189,-34.832878129023406],[-55.99537424935005,-34.8351997],[-55.9950555618189,-34.83752127097659],[-55.994115479548995,-34.83972642869037],[-55.99260114219078,-34.841704597325645],[-55.99058848494272,-34.84335658324693],[-55.98817843084336,-34.84459954898203],[-55.98549183006875,-34.84537116703883],[-55.9826634,-34.845632745265945],[-55.97983496993125,-34.84537116703883],[-55.97714836915664,-34.84459954898203],[-55.97473831505728,-34.84335658324693],[-55.97272565780922,-34.841704597325645],[-55.971211320451005,-34.83972642869037],[-55.9702712381811,-34.83752127097659],[-55.96995255064995,-34.8351997]]]}},{"type":"Feature","properties":{"nombre":"LOMAS DE CARRASCO","aproximado":true},"geometry":{"type":"Polygon","coordinates":[[[-55.96584162019057,-34.7846457],[-55.9660272108,-34.78329288217749],[-55.966574676340194,-34.78200790028948],[-55.96745656460295,-34.780855188693444],[-55.968628654028315,-34.77989254916212],[-55.97003217115829,-34.77916825246123],[-55.9715967377834,-34.77871861785177],[-55.9732439,-34.77856619189056],[-55.9748910622166,-34.77871861785177],[-55.97645562884171,-34.77916825246123],[-55.977859145971685,-34.77989254916212],[-55.97903123539705,-34.780855188693444],[-55.979913123659806,-34.78200790028948],[-55.9804605892,-34.78329288217749],[-55.98064617980943,-34.7846457],[-55.9804605892,-34.785998517822506],[-55.979913123659806,-34.78728349971052],[-55.97903123539705,-34.78843621130655],[-55.977859145971685,-34.78939885083788],[-55.97645562884171,-34.790123147538765],[-55.9748910622166,-34.790572782148224],[-55.9732439,-34.790725208109436],[-55.9715967377834,-34.790572782148224],[-55.97003217115829,-34.790123147538765],[-55.968628654028315,-34.78939885083788],[-55.96745656460295,-34.78843621130655],[-55.966574676340194,-34.78728349971052],[-55.9660272108,-34.785998517822506],[-55.96584162019057,-34.7846457]]]}},{"type":"Feature","properties":{"nombre":"LOMAS DE SOLYMAR","aproximado":true},"geometry":{"type":"Polygon","coordinates":[[[-55.919796805203,-34.8121078],[-55.920305517734384,-34.80840089813673],[-55.921806146358,-34.804879875811565],[-55.9242234432886,-34.80172129178639],[-55.927436195164304,-34.79908353065333],[-55.9312833011908,-34.79709886076992],[-55.93557185140781,-34.795866801771375],[-55.9400868,-34.79544913424052],[-55.9446017485922,-34.795866801771375],[-55.948890298809204,-34.79709886076992],[-55.9527374048357,-34.79908353065333],[-55.95595015671141,-34.80172129178639],[-55.958367453642005,-34.804879875811565],[-55.95986808226562,-34.80840089813673],[-55.96037679479701,-34.8121078],[-55.95986808226562,-34.81581470186327],[-55.958367453642005,-34.819335724188434],[-55.95595015671141,-34.82249430821361],[-55.9527374048357,-34.82513206934667],[-55.948890298809204,-34.82711673923008],[-55.9446017485922,-34.828348798228625],[-55.9400868,-34.82876646575948],[-55.93557185140781,-34.828348798228625],[-55.9312833011908,-34.82711673923008],[-55.927436195164304,-34.82513206934667],[-55.9242234432886,-34.82249430821361],[-55.921806146358,-34.819335724188434],[-55.920305517734384,-34.81581470186327],[-55.919796805203,-34.8121078]]]}},{"type":"Feature","properties":{"nombre":"MÉDANOS DE SOLYMAR","aproximado":true},"geometry":{"type":"Polygon","coordinates":[[[-55.9145329389266,-34.8133888],[-55.91471859425371,-34.81203598217749],[-55.91526625070173,-34.81075100028948],[-55.916148446489515,-34.809598288693444],[-55.91732094463656,-34.80863564916212],[-55.91872495118983,-34.80791135246123],[-55.920290063398134,-34.80746171785177],[-55.9219378,-34.80730929189056],[-55.92358553660187,-34.80746171785177],[-55.925150648810174,-34.80791135246123],[-55.92655465536345,-34.80863564916212],[-55.92772715351049,-34.809598288693444],[-55.92860934929828,-34.81075100028948],[-55.92915700574629,-34.81203598217749],[-55.929342661073406,-34.8133888],[-55.92915700574629,-34.814741617822506],[-55.92860934929828,-34.81602659971052],[-55.92772715351049,-34.81717931130655],[-55.92655465536345,-34.81814195083788],[-55.925150648810174,-34.818866247538764],[-55.92358553660187,-34.819315882148224],[-55.9219378,-34.819468308109435],[-55.920290063398134,-34.819315882148224],[-55.91872495118983,-34.818866247538764],[-55.91732094463656,-34.81814195083788],[-55.916148446489515,-34.81717931130655],[-55.91526625070173,-34.81602659971052],[-55.91471859425371,-34.814741617822506],[-55.9145329389266,-34.8133888]]]}},{"type":"Feature","properties":{"nombre":"MONTES DE SOLYMAR","aproximado":true},"geometry":{"type":"Polygon","coordinates":[[[-55.943767874355025,-34.8141073],[-55.94395353130108,-34.812754482177496],[-55.94450119252474,-34.81146950028948],[-55.94538339600542,-34.81031678869345],[-55.94655590437684,-34.809354149162125],[-55.94795992317327,-34.80862985246124],[-55.9495250490296,-34.80818021785178],[-55.9511728,-34.80802779189057],[-55.9528205509704,-34.80818021785178],[-55.95438567682673,-34.80862985246124],[-55.95578969562317,-34.809354149162125],[-55.956962203994586,-34.81031678869345],[-55.957844407475264,-34.81146950028948],[-55.95839206869893,-34.812754482177496],[-55.95857772564498,-34.8141073],[-55.95839206869893,-34.81546011782251],[-55.957844407475264,-34.81674509971052],[-55.956962203994586,-34.81789781130656],[-55.95578969562317,-34.81886045083788],[-55.95438567682673,-34.81958474753877],[-55.9528205509704,-34.82003438214823],[-55.9511728,-34.82018680810944],[-55.9495250490296,-34.82003438214823],[-55.94795992317327,-34.81958474753877],[-55.94655590437684,-34.81886045083788],[-55.94538339600542,-34.81789781130656],[-55.94450119252474,-34.81674509971052],[-55.94395353130108,-34.81546011782251],[-55.943767874355025,-34.8141073]]]}},{"type":"Feature","properties":{"nombre":"PARQUE CARRASCO","aproximado":true},"geometry":{"type":"Polygon","coordinates":[[[-55.99232286141566,-34.8577189],[-55.99264764119423,-34.85535359562252],[-55.993605694715676,-34.853106897483165],[-55.99514898117596,-34.851091464408064],[-55.997200113747745,-34.849408358627294],[-55.999656240079105,-34.848141978092755],[-56.002394199739896,-34.84735582441238],[-56.0052767,-34.847089318614415],[-56.00815920026011,-34.84735582441238],[-56.0108971599209,-34.848141978092755],[-56.01335328625226,-34.849408358627294],[-56.01540441882405,-34.851091464408064],[-56.01694770528433,-34.853106897483165],[-56.017905758805774,-34.85535359562252],[-56.01823053858435,-34.8577189],[-56.017905758805774,-34.860084204377486],[-56.01694770528433,-34.86233090251684],[-56.01540441882405,-34.86434633559194],[-56.01335328625226,-34.86602944137271],[-56.0108971599209,-34.86729582190725],[-56.00815920026011,-34.86808197558762],[-56.0052767,-34.86834848138559],[-56.002394199739896,-34.86808197558762],[-55.999656240079105,-34.86729582190725],[-55.997200113747745,-34.86602944137271],[-55.99514898117596,-34.86434633559194],[-55.993605694715676,-34.86233090251684],[-55.99264764119423,-34.860084204377486],[-55.99232286141566,-34.8577189]]]}},{"type":"Feature","properties":{"nombre":"PARQUE DE SOLYMAR","aproximado":true},"geometry":{"type":"Polygon","coordinates":[[[-55.95038877531875,-34.8174344],[-55.95057443976227,-34.816081582177496],[-55.95112212310237,-34.81479660028948],[-55.95200436220945,-34.81364388869345],[-55.95317691793077,-34.812681249162125],[-55.95458099342629,-34.81195695246124],[-55.95614618248777,-34.81150731785178],[-55.957794,-34.811354891890566],[-55.95944181751223,-34.81150731785178],[-55.96100700657371,-34.81195695246124],[-55.96241108206923,-34.812681249162125],[-55.96358363779055,-34.81364388869345],[-55.96446587689763,-34.81479660028948],[-55.96501356023773,-34.816081582177496],[-55.96519922468125,-34.8174344],[-55.96501356023773,-34.81878721782251],[-55.96446587689763,-34.82007219971052],[-55.96358363779055,-34.82122491130656],[-55.96241108206923,-34.82218755083788],[-55.96100700657371,-34.82291184753877],[-55.95944181751223,-34.82336148214823],[-55.957794,-34.82351390810944],[-55.95614618248777,-34.82336148214823],[-55.95458099342629,-34.82291184753877],[-55.95317691793077,-34.82218755083788],[-55.95200436220945,-34.82122491130656],[-55.95112212310237,-34.82007219971052],[-55.95057443976227,-34.81878721782251],[-55.95038877531875,-34.8174344]]]}},{"type":"Feature","properties":{"nombre":"PARQUE MIRAMAR","aproximado":true},"geometry":{"type":"Polygon","coordinates":[[[-56.027343477450465,-34.8674122],[-56.027529254664934,-34.86605938217749],[-56.02807727066307,-34.86477440028948],[-56.02896004563442,-34.86362168869344],[-56.03013331355576,-34.86265904916212],[-56.03153824187438,-34.86193475246123],[-56.03310438161792,-34.86148511785177],[-56.0347532,-34.86133269189056],[-56.03640201838208,-34.86148511785177],[-56.037968158125615,-34.86193475246123],[-56.039373086444236,-34.86265904916212],[-56.040546354365574,-34.86362168869344],[-56.041429129336926,-34.86477440028948],[-56.04197714533506,-34.86605938217749],[-56.04216292254953,-34.8674122],[-56.04197714533506,-34.868765017822504],[-56.041429129336926,-34.87004999971052],[-56.040546354365574,-34.87120271130655],[-56.039373086444236,-34.872165350837875],[-56.037968158125615,-34.87288964753876],[-56.03640201838208,-34.87333928214822],[-56.0347532,-34.873491708109434],[-56.03310438161792,-34.87333928214822],[-56.03153824187438,-34.87288964753876],[-56.03013331355576,-34.872165350837875],[-56.02896004563442,-34.87120271130655],[-56.02807727066307,-34.87004999971052],[-56.027529254664934,-34.868765017822504],[-56.027343477450465,-34.8674122]]]}},{"type":"Feature","properties":{"nombre":"PINARES DE SOLYMAR","aproximado":true},"geometry":{"type":"Polygon","coordinates":[[[-55.92903349932979,-34.8038125],[-55.9292191330848,-34.80245968217749],[-55.92976672589821,-34.80117470028948],[-55.930648819179815,-34.800021988693445],[-55.93182118108917,-34.79905934916212],[-55.93322502450478,-34.79833505246123],[-55.93478995485585,-34.797885417851774],[-55.9364375,-34.79773299189056],[-55.93808504514414,-34.797885417851774],[-55.939649975495215,-34.79833505246123],[-55.941053818910824,-34.79905934916212],[-55.94222618082018,-34.800021988693445],[-55.94310827410178,-34.80117470028948],[-55.94365586691519,-34.80245968217749],[-55.9438415006702,-34.8038125],[-55.94365586691519,-34.80516531782251],[-55.94310827410178,-34.80645029971052],[-55.94222618082018,-34.807603011306554],[-55.941053818910824,-34.80856565083788],[-55.939649975495215,-34.809289947538765],[-55.93808504514414,-34.809739582148225],[-55.9364375,-34.809892008109436],[-55.93478995485585,-34.809739582148225],[-55.93322502450478,-34.809289947538765],[-55.93182118108917,-34.80856565083788],[-55.930648819179815,-34.807603011306554],[-55.92976672589821,-34.80645029971052],[-55.9292191330848,-34.80516531782251],[-55.92903349932979,-34.8038125]]]}},{"type":"Feature","properties":{"nombre":"SAN JOSÉ DE CARRASCO","aproximado":true},"geometry":{"type":"Polygon","coordinates":[[[-55.97970299277643,-34.8432741],[-55.98001625365158,-34.84099228489065],[-55.98094032806867,-34.838824889518925],[-55.98242887907784,-34.836880596139],[-55.98440726451584,-34.835256899739605],[-55.986776279875784,-34.83403521923818],[-55.989417132835385,-34.83327681479637],[-55.9921974,-34.83301971597969],[-55.99497766716462,-34.83327681479637],[-55.99761852012422,-34.83403521923818],[-55.999987535484166,-34.835256899739605],[-56.00196592092217,-34.836880596139],[-56.003454471931335,-34.838824889518925],[-56.00437854634843,-34.84099228489065],[-56.00469180722357,-34.8432741],[-56.00437854634843,-34.84555591510935],[-56.003454471931335,-34.84772331048108],[-56.00196592092217,-34.84966760386101],[-55.999987535484166,-34.8512913002604],[-55.99761852012422,-34.85251298076182],[-55.99497766716462,-34.853271385203634],[-55.9921974,-34.853528484020316],[-55.989417132835385,-34.853271385203634],[-55.986776279875784,-34.85251298076182],[-55.98440726451584,-34.8512913002604],[-55.98242887907784,-34.84966760386101],[-55.98094032806867,-34.84772331048108],[-55.98001625365158,-34.84555591510935],[-55.97970299277643,-34.8432741]]]}},{"type":"Feature","properties":{"nombre":"SHANGRILÁ","aproximado":true},"geometry":{"type":"Polygon","coordinates":[[[-55.99012391157152,-34.8479619],[-55.99032765458863,-34.846477905505424],[-55.990928667114346,-34.845068324691425],[-55.991896811871,-34.84380383982591],[-55.99318354203788,-34.84274785746008],[-55.994724335591506,-34.84195332895914],[-55.996441930709295,-34.8414600952998],[-55.9982502,-34.841292889277305],[-56.00005846929071,-34.8414600952998],[-56.001776064408496,-34.84195332895914],[-56.00331685796212,-34.84274785746008],[-56.004603588129,-34.84380383982591],[-56.005571732885656,-34.845068324691425],[-56.00617274541137,-34.846477905505424],[-56.00637648842848,-34.8479619],[-56.00617274541137,-34.84944589449458],[-56.005571732885656,-34.85085547530858],[-56.004603588129,-34.85211996017409],[-56.00331685796212,-34.85317594253992],[-56.001776064408496,-34.85397047104086],[-56.00005846929071,-34.8544637047002],[-55.9982502,-34.8546309107227],[-55.996441930709295,-34.8544637047002],[-55.994724335591506,-34.85397047104086],[-55.99318354203788,-34.85317594253992],[-55.991896811871,-34.85211996017409],[-55.990928667114346,-34.85085547530858],[-55.99032765458863,-34.84944589449458],[-55.99012391157152,-34.8479619]]]}},{"type":"Feature","properties":{"nombre":"SOLYMAR","aproximado":true},"geometry":{"type":"Polygon","coordinates":[[[-55.94822084136497,-34.8274247],[-55.9487275547443,-34.82373305209334],[-55.95022228615758,-34.82022651882769],[-55.952630083530316,-34.81708093242301],[-55.95583020984813,-34.81445402571645],[-55.9596621974149,-34.81247752277929],[-55.963933894373035,-34.81125053372195],[-55.9684311,-34.81083458489923],[-55.97292830562696,-34.81125053372195],[-55.97720000258509,-34.81247752277929],[-55.98103199015186,-34.81445402571645],[-55.98423211646968,-34.81708093242301],[-55.98663991384241,-34.82022651882769],[-55.98813464525569,-34.82373305209334],[-55.98864135863502,-34.8274247],[-55.98813464525569,-34.831116347906665],[-55.98663991384241,-34.834622881172315],[-55.98423211646968,-34.83776846757699],[-55.98103199015186,-34.84039537428355],[-55.97720000258509,-34.842371877220714],[-55.97292830562696,-34.84359886627805],[-55.9684311,-34.84401481510077],[-55.963933894373035,-34.84359886627805],[-55.9596621974149,-34.842371877220714],[-55.95583020984813,-34.84039537428355],[-55.952630083530316,-34.83776846757699],[-55.95022228615758,-34.834622881172315],[-55.9487275547443,-34.831116347906665],[-55.94822084136497,-34.8274247]]]}},{"type":"Feature","properties":{"nombre":"VILLA AEROPARQUE","aproximado":true},"geometry":{"type":"Polygon","coordinates":[[[-55.98671569129392,-34.7931988],[-55.986941342809764,-34.79155413847312],[-55.98760698224808,-34.7899919471427],[-55.988679231667945,-34.788590560805204],[-55.99010432400613,-34.78742025082327],[-55.99181079918214,-34.786539701426165],[-55.99371308740501,-34.78599306703754],[-55.9957158,-34.78580775818816],[-55.997718512594986,-34.78599306703754],[-55.99962080081786,-34.786539701426165],[-56.001327275993866,-34.78742025082327],[-56.002752368332054,-34.788590560805204],[-56.00382461775192,-34.7899919471427],[-56.004490257190234,-34.79155413847312],[-56.00471590870608,-34.7931988],[-56.004490257190234,-34.79484346152688],[-56.00382461775192,-34.796405652857295],[-56.002752368332054,-34.797807039194794],[-56.001327275993866,-34.79897734917673],[-55.99962080081786,-34.79985789857383],[-55.997718512594986,-34.80040453296246],[-55.9957158,-34.800589841811835],[-55.99371308740501,-34.80040453296246],[-55.99181079918214,-34.79985789857383],[-55.99010432400613,-34.79897734917673],[-55.988679231667945,-34.797807039194794],[-55.98760698224808,-34.796405652857295],[-55.986941342809764,-34.79484346152688],[-55.98671569129392,-34.7931988]]]}},{"type":"Feature","properties":{"nombre":"CANELONES","aproximado":true},"geometry":{"type":"Polygon","coordinates":[[[-56.260258867342685,-34.5246844],[-56.260784166009394,-34.52084333430878],[-56.26233372134092,-34.517194875690215],[-56.264829832162555,-34.51392197309407],[-56.268147333054856,-34.51118874352298],[-56.2721198706704,-34.509132242520586],[-56.27654824538528,-34.507855591634375],[-56.2812104,-34.5074228074706],[-56.28587255461472,-34.507855591634375],[-56.2903009293296,-34.509132242520586],[-56.29427346694514,-34.51118874352298],[-56.29759096783744,-34.51392197309407],[-56.300087078659075,-34.517194875690215],[-56.301636633990604,-34.52084333430878],[-56.30216193265731,-34.5246844],[-56.301636633990604,-34.52852546569122],[-56.300087078659075,-34.53217392430978],[-56.29759096783744,-34.535446826905925],[-56.29427346694514,-34.53818005647702],[-56.2903009293296,-34.54023655747941],[-56.28587255461472,-34.54151320836562],[-56.2812104,-34.5419459925294],[-56.27654824538528,-34.54151320836562],[-56.2721198706704,-34.54023655747941],[-56.268147333054856,-34.53818005647702],[-56.264829832162555,-34.535446826905925],[-56.26233372134092,-34.53217392430978],[-56.260784166009394,-34.52852546569122],[-56.260258867342685,-34.5246844]]]}}]}